[{"OBJECT_NAME":"STARLINK-4191","OBJECT_ID":"2022-062AG","EPOCH":"2026-03-09T06:53:46.614048","MEAN_MOTION":15.08839224,"ECCENTRICITY":0.0001505,"INCLINATION":53.2185,"RA_OF_ASC_NODE":25.9245,"ARG_OF_PERICENTER":107.4348,"MEAN_ANOMALY":252.6809,"EPHEMERIS_TYPE":0,"CLASSIFICATION_TYPE":"U","NORAD_CAT_ID":52860,"ELEMENT_SET_NO":999,"REV_AT_EPOCH":20586,"BSTAR":-4.2247414e-5,"MEAN_MOTION_DOT":-9.6e-6,"MEAN_MOTION_DDOT":0},{"OBJECT_NAME":"UNKNOWN","OBJECT_ID":"","EPOCH":"2026-03-07T17:21:07.805664","MEAN_MOTION":15.09455608,"ECCENTRICITY":0.0009057,"INCLINATION":82.8696,"RA_OF_ASC_NODE":177.6495,"ARG_OF_PERICENTER":167.3062,"MEAN_ANOMALY":192.8398,"EPHEMERIS_TYPE":0,"CLASSIFICATION_TYPE":"U","NORAD_CAT_ID":87725,"ELEMENT_SET_NO":999,"REV_AT_EPOCH":64668,"BSTAR":0.0060116,"MEAN_MOTION_DOT":0.00097492,"MEAN_MOTION_DDOT":0}]
